{
    "links": {
        "self": "http://www.neowsapp.com/rest/v1/neo/3674106?api_key=iIulBulltgU6a56xZRHN4H3l9WmuAYTsLGpBGhQ2"
    },
    "id": "3674106",
    "neo_reference_id": "3674106",
    "name": "(2014 MM27)",
    "designation": "2014 MM27",
    "nasa_jpl_url": "http://ssd.jpl.nasa.gov/sbdb.cgi?sstr=3674106",
    "absolute_magnitude_h": 23.5,
    "estimated_diameter": {
        "kilometers": {
            "estimated_diameter_min": 0.0530340723,
            "estimated_diameter_max": 0.1185877909
        },
        "meters": {
            "estimated_diameter_min": 53.0340723319,
            "estimated_diameter_max": 118.5877908577
        },
        "miles": {
            "estimated_diameter_min": 0.0329538346,
            "estimated_diameter_max": 0.0736870142
        },
        "feet": {
            "estimated_diameter_min": 173.9963058693,
            "estimated_diameter_max": 389.0675677576
        }
    },
    "is_potentially_hazardous_asteroid": false,
    "close_approach_data": [
        {
            "close_approach_date": "2014-06-17",
            "close_approach_date_full": "2014-Jun-17 09:59",
            "epoch_date_close_approach": 1402999140000,
            "relative_velocity": {
                "kilometers_per_second": "9.587241175",
                "kilometers_per_hour": "34514.0682299389",
                "miles_per_hour": "21445.6997843195"
            },
            "miss_distance": {
                "astronomical": "0.1114694576",
                "lunar": "43.3616190064",
                "kilometers": "16675593.427015312",
                "miles": "10361733.2755908256"
            },
            "orbiting_body": "Earth"
        }
    ],
    "orbital_data": {
        "orbit_id": "7",
        "orbit_determination_date": "2017-04-06 08:39:52",
        "first_observation_date": "2014-06-28",
        "last_observation_date": "2014-07-06",
        "data_arc_in_days": 8,
        "observations_used": 20,
        "orbit_uncertainty": "8",
        "minimum_orbit_intersection": ".0972416",
        "jupiter_tisserand_invariant": "4.443",
        "epoch_osculation": "2456837.5",
        "eccentricity": ".3514434383814247",
        "semi_major_axis": "1.509385290993208",
        "inclination": "9.009598317235175",
        "ascending_node_longitude": "112.1623235355022",
        "orbital_period": "677.3273259807064",
        "perihelion_distance": ".9789217344842078",
        "perihelion_argument": "102.6269736438956",
        "aphelion_distance": "2.039848847502209",
        "perihelion_time": "2456782.897892155349",
        "mean_anomaly": "29.02106274187775",
        "mean_motion": ".5315007769378768",
        "equinox": "J2000",
        "orbit_class": {
            "orbit_class_type": "APO",
            "orbit_class_description": "Near-Earth asteroid orbits which cross the Earth’s orbit similar to that of 1862 Apollo",
            "orbit_class_range": "a (semi-major axis) > 1.0 AU; q (perihelion) < 1.017 AU"
        }
    },
    "is_sentry_object": false
}